{"type": "FeatureCollection", "features": [{"type": "Feature", "properties": {"NAME": "Adler-Apotheke"}, "geometry": {"type": "Point", "coordinates": [11.026452, 50.996556]}}, {"type": "Feature", "properties": {"NAME": "Altstadt Apotheke"}, "geometry": {"type": "Point", "coordinates": [11.026824, 50.980152]}}, {"type": "Feature", "properties": {"NAME": "Anger-Vital-Apotheke"}, "geometry": {"type": "Point", "coordinates": [11.033532, 50.975715]}}, {"type": "Feature", "properties": {"NAME": "Apollo-Apotheke Mitte"}, "geometry": {"type": "Point", "coordinates": [11.035118, 50.973405]}}, {"type": "Feature", "properties": {"NAME": "Apollo-Apotheke Süd"}, "geometry": {"type": "Point", "coordinates": [11.027295, 50.961381]}}, {"type": "Feature", "properties": {"NAME": "Apotheke am Dom"}, "geometry": {"type": "Point", "coordinates": [11.025142, 50.977693]}}, {"type": "Feature", "properties": {"NAME": "Apotheke am Mainzerhofplatz"}, "geometry": {"type": "Point", "coordinates": [11.019477, 50.974958]}}, {"type": "Feature", "properties": {"NAME": "Apotheke am Südpark"}, "geometry": {"type": "Point", "coordinates": [11.04242, 50.964489]}}, {"type": "Feature", "properties": {"NAME": "Apotheke am Wiesenhügel"}, "geometry": {"type": "Point", "coordinates": [11.067316, 50.951627]}}, {"type": "Feature", "properties": {"NAME": "Apotheke am Zoopark"}, "geometry": {"type": "Point", "coordinates": [11.02226, 51.016949]}}, {"type": "Feature", "properties": {"NAME": "Apotheke im Hauptbahnhof"}, "geometry": {"type": "Point", "coordinates": [11.037252, 50.972398]}}, {"type": "Feature", "properties": {"NAME": "Arkaden-Apotheke"}, "geometry": {"type": "Point", "coordinates": [11.035848, 50.987754]}}, {"type": "Feature", "properties": {"NAME": "Arnika-Apotheke"}, "geometry": {"type": "Point", "coordinates": [11.017769, 50.983057]}}, {"type": "Feature", "properties": {"NAME": "Bahnhof-Apotheke"}, "geometry": {"type": "Point", "coordinates": [11.035228, 50.974854]}}, {"type": "Feature", "properties": {"NAME": "Beethoven-Apotheke"}, "geometry": {"type": "Point", "coordinates": [11.040653, 50.96447]}}, {"type": "Feature", "properties": {"NAME": "Delphin Apotheke"}, "geometry": {"type": "Point", "coordinates": [11.058798, 50.971079]}}, {"type": "Feature", "properties": {"NAME": "Drosselberg-Apotheke"}, "geometry": {"type": "Point", "coordinates": [11.078761, 50.946298]}}, {"type": "Feature", "properties": {"NAME": "EGA Apotheke"}, "geometry": {"type": "Point", "coordinates": [10.986887, 50.96121]}}, {"type": "Feature", "properties": {"NAME": "Geratal-Apotheke"}, "geometry": {"type": "Point", "coordinates": [11.001954, 50.954116]}}, {"type": "Feature", "properties": {"NAME": "Germania-Apotheke"}, "geometry": {"type": "Point", "coordinates": [11.042427, 50.979229]}}, {"type": "Feature", "properties": {"NAME": "Ginkgo-Apotheke"}, "geometry": {"type": "Point", "coordinates": [11.024843, 50.966327]}}, {"type": "Feature", "properties": {"NAME": "Hufeland-Apotheke"}, "geometry": {"type": "Point", "coordinates": [11.0624, 50.957403]}}, {"type": "Feature", "properties": {"NAME": "Kranich-Apotheke"}, "geometry": {"type": "Point", "coordinates": [11.069306, 50.955186]}}, {"type": "Feature", "properties": {"NAME": "Linderbach-Apotheke"}, "geometry": {"type": "Point", "coordinates": [11.106053, 50.976389]}}, {"type": "Feature", "properties": {"NAME": "Luther-Apotheke"}, "geometry": {"type": "Point", "coordinates": [11.028898, 50.996721]}}, {"type": "Feature", "properties": {"NAME": "Löwen-Apotheke"}, "geometry": {"type": "Point", "coordinates": [11.031683, 50.982186]}}, {"type": "Feature", "properties": {"NAME": "Melchendorfer Apotheke"}, "geometry": {"type": "Point", "coordinates": [11.075798, 50.950328]}}, {"type": "Feature", "properties": {"NAME": "Mohren-Apotheke"}, "geometry": {"type": "Point", "coordinates": [11.032814, 50.976603]}}, {"type": "Feature", "properties": {"NAME": "Neue Marien-Apotheke im Facharztzentrum Angerbrunnen"}, "geometry": {"type": "Point", "coordinates": [11.030386, 50.973949]}}, {"type": "Feature", "properties": {"NAME": "Nord-Apotheke"}, "geometry": {"type": "Point", "coordinates": [10.999982, 51.008234]}}, {"type": "Feature", "properties": {"NAME": "Park-Apotheke"}, "geometry": {"type": "Point", "coordinates": [10.99393, 51.008774]}}, {"type": "Feature", "properties": {"NAME": "Pluspunktapotheke Apotheke A1"}, "geometry": {"type": "Point", "coordinates": [11.036145, 50.97779]}}, {"type": "Feature", "properties": {"NAME": "Rieth-Apotheke"}, "geometry": {"type": "Point", "coordinates": [11.015724, 51.00493]}}, {"type": "Feature", "properties": {"NAME": "Rosen-Apotheke"}, "geometry": {"type": "Point", "coordinates": [10.993551, 51.021836]}}, {"type": "Feature", "properties": {"NAME": "Römer-Apotheke"}, "geometry": {"type": "Point", "coordinates": [11.014486, 50.971052]}}, {"type": "Feature", "properties": {"NAME": "Schwan-Apotheke"}, "geometry": {"type": "Point", "coordinates": [11.034845, 50.975753]}}, {"type": "Feature", "properties": {"NAME": "Stadtpark-Apotheke"}, "geometry": {"type": "Point", "coordinates": [11.031301, 50.967661]}}, {"type": "Feature", "properties": {"NAME": "Tal-Apotheke"}, "geometry": {"type": "Point", "coordinates": [11.026262, 50.987012]}}, {"type": "Feature", "properties": {"NAME": "Theater-Apotheke"}, "geometry": {"type": "Point", "coordinates": [11.022936, 50.971108]}}, {"type": "Feature", "properties": {"NAME": "Trommsdorff-Apotheke"}, "geometry": {"type": "Point", "coordinates": [11.043122, 50.981411]}}, {"type": "Feature", "properties": {"NAME": "Wilhelm-Busch-Apotheke"}, "geometry": {"type": "Point", "coordinates": [11.044934, 50.971224]}}]}