{"type": "FeatureCollection", "features": [{"type": "Feature", "properties": {"NAME": "Dreienbrunnenbad"}, "geometry": {"type": "Point", "coordinates": [11.010276, 50.96179]}}, {"type": "Feature", "properties": {"NAME": "Freibad Möbisburg"}, "geometry": {"type": "Point", "coordinates": [10.989222, 50.923914]}}, {"type": "Feature", "properties": {"NAME": "Freizeit- und Erholungspark Nordstrand"}, "geometry": {"type": "Point", "coordinates": [11.050177, 50.998217]}}, {"type": "Feature", "properties": {"NAME": "Sportbecken"}, "geometry": {"type": "Point", "coordinates": [11.01974, 50.993367]}}, {"type": "Feature", "properties": {"NAME": "Strandbad Stotternheim"}, "geometry": {"type": "Point", "coordinates": [11.052222, 51.049958]}}]}