{"type": "FeatureCollection", "features": [{"type": "Feature", "properties": {"NAME": "Bibliothek Berliner Platz"}, "geometry": {"type": "Point", "coordinates": [11.005293, 51.003499]}}, {"type": "Feature", "properties": {"NAME": "Bibliothek des Bundesarbeitsgerichts"}, "geometry": {"type": "Point", "coordinates": [11.014272, 50.977538]}}, {"type": "Feature", "properties": {"NAME": "Bibliothek des Evangelischen Ministeriums"}, "geometry": {"type": "Point", "coordinates": [11.029736, 50.981038]}}, {"type": "Feature", "properties": {"NAME": "Bibliothek des Naturkundemuseums"}, "geometry": {"type": "Point", "coordinates": [11.026322, 50.976614]}}, {"type": "Feature", "properties": {"NAME": "Bibliothek des Thüringer Ministeriums für Bildung, Jugend und Sport"}, "geometry": {"type": "Point", "coordinates": [11.041848, 50.957115]}}, {"type": "Feature", "properties": {"NAME": "Bibliothek Drosselberg"}, "geometry": {"type": "Point", "coordinates": [11.080645, 50.948673]}}, {"type": "Feature", "properties": {"NAME": "Bibliothek Johannesplatz"}, "geometry": {"type": "Point", "coordinates": [11.03105, 50.994491]}}, {"type": "Feature", "properties": {"NAME": "Bibliothek Krämpfervorstadt"}, "geometry": {"type": "Point", "coordinates": [11.048294, 50.983779]}}, {"type": "Feature", "properties": {"NAME": "Bibliothek Neudietendorf"}, "geometry": {"type": "Point", "coordinates": [10.914282, 50.910899]}}, {"type": "Feature", "properties": {"NAME": "Bibliothek Südpark"}, "geometry": {"type": "Point", "coordinates": [11.039798, 50.959032]}}, {"type": "Feature", "properties": {"NAME": "Diözesan-Medienstelle"}, "geometry": {"type": "Point", "coordinates": [11.023, 50.973397]}}, {"type": "Feature", "properties": {"NAME": "Hochschulbibliothek der Fachhochschule Erfurt"}, "geometry": {"type": "Point", "coordinates": [11.04184, 50.985489]}}, {"type": "Feature", "properties": {"NAME": "Kinder- und Jugendbibliothek Erfurt"}, "geometry": {"type": "Point", "coordinates": [11.025807, 50.977544]}}, {"type": "Feature", "properties": {"NAME": "Medienzentrum der EKM"}, "geometry": {"type": "Point", "coordinates": [10.911865, 50.912723]}}, {"type": "Feature", "properties": {"NAME": "Queer Bibliothek"}, "geometry": {"type": "Point", "coordinates": [11.030274, 50.982527]}}, {"type": "Feature", "properties": {"NAME": "Schambrowski"}, "geometry": {"type": "Point", "coordinates": [11.025927, 50.994354]}}, {"type": "Feature", "properties": {"NAME": "Stadt- und Regionalbibliothek Erfurt"}, "geometry": {"type": "Point", "coordinates": [11.024481, 50.978264]}}, {"type": "Feature", "properties": {"NAME": "Universitätsbibliothek Erfurt"}, "geometry": {"type": "Point", "coordinates": [11.009025, 50.989211]}}]}