{"type": "FeatureCollection", "features": [{"type": "Feature", "properties": {"route_id": "evag-1", "name": "1", "color": "#F08A00", "label_lon": 11.025622, "label_lat": 50.994246}, "geometry": {"type": "LineString", "coordinates": [[10.991883, 51.013151], [10.994549, 51.009057], [10.998631, 51.006081], [11.003379, 51.00258], [11.005961, 51.003132], [11.012324, 51.005371], [11.0162, 51.004666], [11.017776, 51.002252], [11.023059, 51.002902], [11.027606, 51.00086], [11.026686, 50.998524], [11.025622, 50.994246], [11.0262, 50.990457], [11.02819, 50.985179], [11.031069, 50.982317], [11.034603, 50.979479], [11.034532, 50.976357], [11.037202, 50.972106], [11.032046, 50.968212], [11.033687, 50.963228], [11.034538, 50.96061], [11.034958, 50.958915], [11.035195, 50.958458]]}}, {"type": "Feature", "properties": {"route_id": "evag-2", "name": "2", "color": "#E2001A", "label_lon": 11.040727, "label_lat": 50.969057}, "geometry": {"type": "LineString", "coordinates": [[11.093063, 50.949887], [11.08918, 50.94832], [11.085201, 50.945143], [11.078404, 50.947085], [11.076695, 50.950056], [11.074555, 50.952439], [11.070333, 50.954356], [11.062623, 50.956281], [11.056678, 50.957492], [11.050551, 50.959222], [11.04359, 50.959974], [11.040902, 50.964708], [11.040727, 50.969057], [11.037092, 50.972378], [11.034067, 50.976467], [11.029134, 50.977707], [11.024918, 50.976862], [11.018651, 50.974249], [11.015199, 50.971182], [11.012293, 50.971247], [10.997668, 50.964776], [10.994268, 50.962715], [10.989054, 50.960927], [10.98349, 50.95815]]}}, {"type": "Feature", "properties": {"route_id": "evag-3", "name": "3", "color": "#680C60", "label_lon": 11.034532, "label_lat": 50.976357}, "geometry": {"type": "LineString", "coordinates": [[10.991883, 51.013151], [10.994549, 51.009057], [10.998631, 51.006081], [11.003379, 51.00258], [11.005961, 51.003132], [11.012324, 51.005371], [11.0162, 51.004666], [11.017776, 51.002252], [11.023059, 51.002902], [11.027606, 51.00086], [11.026686, 50.998524], [11.025622, 50.994246], [11.0262, 50.990457], [11.02819, 50.985179], [11.031069, 50.982317], [11.034603, 50.979479], [11.034532, 50.976357], [11.037202, 50.972106], [11.040786, 50.969651], [11.040791, 50.965273], [11.044243, 50.960052], [11.05128, 50.959057], [11.057336, 50.957326], [11.063297, 50.956053], [11.070076, 50.954426], [11.075684, 50.951486], [11.076675, 50.949588], [11.078924, 50.946711], [11.085936, 50.945418], [11.089947, 50.948398], [11.092796, 50.950443], [11.093063, 50.949887]]}}, {"type": "Feature", "properties": {"route_id": "evag-4", "name": "4", "color": "#007CC1", "label_lon": 11.021741, "label_lat": 50.972846}, "geometry": {"type": "LineString", "coordinates": [[10.95543, 50.971867], [10.961249, 50.972701], [10.962144, 50.974696], [10.966631, 50.972677], [10.972139, 50.972141], [10.983161, 50.971384], [10.993312, 50.972685], [11.000705, 50.973836], [11.004697, 50.974931], [11.010658, 50.976492], [11.012016, 50.974238], [11.012669, 50.970963], [11.015762, 50.971501], [11.018312, 50.97208], [11.021741, 50.972846], [11.026293, 50.97238], [11.029827, 50.973614], [11.034771, 50.976422], [11.038016, 50.979044], [11.041241, 50.981439], [11.04582, 50.984524], [11.0495, 50.986343], [11.055249, 50.989401], [11.059423, 50.991466], [11.068061, 50.994691], [11.069959, 50.988782], [11.063886, 50.986944], [11.063349, 50.98676]]}}, {"type": "Feature", "properties": {"route_id": "evag-5", "name": "5", "color": "#008436", "label_lon": 11.02819, "label_lat": 50.985862}, "geometry": {"type": "LineString", "coordinates": [[11.063349, 50.98676], [11.070555, 50.988921], [11.067727, 50.994993], [11.058716, 50.991218], [11.054585, 50.989135], [11.048441, 50.985885], [11.045143, 50.984231], [11.040655, 50.980832], [11.037776, 50.978885], [11.034134, 50.980104], [11.03058, 50.982574], [11.02819, 50.985862], [11.026648, 50.989454], [11.025739, 50.994777], [11.026877, 50.998948], [11.028414, 51.001065], [11.031573, 51.004678], [11.033091, 51.009787], [11.032046, 51.012763], [11.025963, 51.013332], [11.023072, 51.016679], [11.024168, 51.020009], [11.023476, 51.019932]]}}, {"type": "Feature", "properties": {"route_id": "evag-6", "name": "6", "color": "#7BAA1F", "label_lon": 11.011918, "label_lat": 50.990948}, "geometry": {"type": "LineString", "coordinates": [[10.991883, 51.013151], [10.994549, 51.009057], [10.998631, 51.006081], [11.003379, 51.00258], [11.005961, 51.003132], [11.012324, 51.005371], [11.015848, 51.005149], [11.011614, 51.005275], [11.005465, 51.002975], [11.006326, 50.998677], [11.009085, 50.99488], [11.011918, 50.990948], [11.016574, 50.986286], [11.019986, 50.983214], [11.022427, 50.980187], [11.024548, 50.977733], [11.029154, 50.977535], [11.034107, 50.976297], [11.037202, 50.972106], [11.032046, 50.968212], [11.024198, 50.966349], [11.019167, 50.965974], [11.017677, 50.964371]]}}, {"type": "Feature", "properties": {"route_id": "evag-9", "name": "9", "color": "#00A4BC", "label_lon": 11.034771, "label_lat": 50.976422}, "geometry": {"type": "LineString", "coordinates": [[11.051169, 50.965214], [11.054098, 50.96468], [11.056165, 50.965947], [11.055734, 50.968954], [11.051093, 50.970355], [11.046891, 50.969782], [11.044848, 50.972219], [11.037424, 50.971929], [11.034396, 50.97367], [11.034771, 50.976422], [11.038016, 50.979044], [11.041241, 50.981439], [11.037617, 50.984538], [11.035554, 50.987865], [11.033513, 50.9929], [11.033521, 50.997323], [11.033324, 50.999919], [11.027455, 51.001281], [11.029378, 51.002682]]}}, {"type": "Feature", "properties": {"route_id": "evag-10", "name": "10", "color": "#6C9076", "label_lon": 10.987389, "label_lat": 51.016007}, "geometry": {"type": "LineString", "coordinates": [[10.950906, 51.023542], [10.968945, 51.032791], [10.974247, 51.034788], [10.970165, 51.034338], [10.968945, 51.032791], [10.989914, 51.021054], [10.993492, 51.02237], [10.993437, 51.022918], [10.987876, 51.019113], [10.987389, 51.016007], [10.991966, 51.013096], [10.996642, 51.013111], [11.000466, 51.008865], [11.005882, 51.008831], [11.011024, 51.010915], [11.022804, 51.013153], [11.028686, 51.012627], [11.03317, 51.009428], [11.032189, 51.005186]]}}, {"type": "Feature", "properties": {"route_id": "evag-30", "name": "30", "color": "#A79501", "label_lon": 11.037616, "label_lat": 51.03076}, "geometry": {"type": "LineString", "coordinates": [[11.016019, 51.005168], [11.0168, 51.010002], [11.018453, 51.0154], [11.020603, 51.017504], [11.023385, 51.019933], [11.026394, 51.020698], [11.034996, 51.021003], [11.036364, 51.025806], [11.037616, 51.03076], [11.041299, 51.039501], [11.042202, 51.042699], [11.042999, 51.048998], [11.043155, 51.053899], [11.037897, 51.053649], [11.033207, 51.056298], [11.047004, 51.058847], [11.048203, 51.060897]]}}, {"type": "Feature", "properties": {"route_id": "evag-51", "name": "51", "color": "#3D3776", "label_lon": 11.056979, "label_lat": 50.97078}, "geometry": {"type": "LineString", "coordinates": [[10.961494, 50.902254], [10.95933, 50.905597], [10.9632, 50.921453], [10.983301, 50.927104], [10.984148, 50.9313], [10.987127, 50.93565], [10.987404, 50.937297], [10.985865, 50.943298], [10.991073, 50.947217], [11.000749, 50.951903], [11.000755, 50.955598], [11.000865, 50.959113], [11.007893, 50.962589], [11.009063, 50.96446], [11.016297, 50.969061], [11.023, 50.971202], [11.02795, 50.97145], [11.034103, 50.973362], [11.037965, 50.973897], [11.052852, 50.97348], [11.056979, 50.97078], [11.066097, 50.97542], [11.071595, 50.976057], [11.0759, 50.976514], [11.085204, 50.977648], [11.098536, 50.977401], [11.099564, 50.979467], [11.106607, 50.988699], [11.106504, 50.988096], [11.102331, 50.980729], [11.099597, 50.979261], [11.098899, 50.976343], [11.107325, 50.974978], [11.110797, 50.967633], [11.109897, 50.964076], [11.105947, 50.963704], [11.095505, 50.961188], [11.095648, 50.958213], [11.10445, 50.950496], [11.093063, 50.949887]]}}, {"type": "Feature", "properties": {"route_id": "evag-80", "name": "80", "color": "#A9AD55", "label_lon": 10.98349, "label_lat": 50.95815}, "geometry": {"type": "LineString", "coordinates": [[11.034396, 50.97367], [11.028795, 50.971871], [11.023055, 50.971302], [11.009299, 50.964741], [11.00778, 50.962552], [10.993598, 50.956184], [10.98349, 50.95815], [10.972794, 50.954699], [10.966395, 50.956998], [10.948495, 50.958699], [10.907106, 50.951946], [10.907706, 50.955502]]}}, {"type": "Feature", "properties": {"route_id": "evag-90", "name": "90", "color": "#032E69", "label_lon": 10.989043, "label_lat": 50.992928}, "geometry": {"type": "LineString", "coordinates": [[10.932505, 50.986304], [10.931931, 50.987255], [10.948457, 50.997604], [10.972174, 50.999586], [10.979186, 50.996861], [10.984996, 50.995626], [10.985676, 50.993196], [10.989043, 50.992928], [10.989905, 50.992594], [10.992649, 50.986608], [11.003094, 50.984564], [11.009204, 50.983941], [11.015144, 50.983208], [11.022281, 50.980356], [11.024442, 50.977625]]}}]}