{"type": "FeatureCollection", "features": [{"type": "Feature", "properties": {"NAME": "Alter jüdischer Friedhof"}, "geometry": {"type": "Point", "coordinates": [11.01087, 50.970353]}}, {"type": "Feature", "properties": {"NAME": "Friedhof"}, "geometry": {"type": "Point", "coordinates": [11.152648, 50.971613]}}, {"type": "Feature", "properties": {"NAME": "Friedhof Alach"}, "geometry": {"type": "Point", "coordinates": [10.933485, 50.987552]}}, {"type": "Feature", "properties": {"NAME": "Friedhof Apfelstädt"}, "geometry": {"type": "Point", "coordinates": [10.887339, 50.90054]}}, {"type": "Feature", "properties": {"NAME": "Friedhof Azmannsdorf"}, "geometry": {"type": "Point", "coordinates": [11.107824, 50.987811]}}, {"type": "Feature", "properties": {"NAME": "Friedhof Bindersleben"}, "geometry": {"type": "Point", "coordinates": [10.953681, 50.971555]}}, {"type": "Feature", "properties": {"NAME": "Friedhof Bischleben"}, "geometry": {"type": "Point", "coordinates": [10.989946, 50.935143]}}, {"type": "Feature", "properties": {"NAME": "Friedhof Büßleben"}, "geometry": {"type": "Point", "coordinates": [11.113728, 50.961417]}}, {"type": "Feature", "properties": {"NAME": "Friedhof Dittelstedt"}, "geometry": {"type": "Point", "coordinates": [11.073875, 50.967048]}}, {"type": "Feature", "properties": {"NAME": "Friedhof Egstedt"}, "geometry": {"type": "Point", "coordinates": [11.055053, 50.918603]}}, {"type": "Feature", "properties": {"NAME": "Friedhof Eischleben"}, "geometry": {"type": "Point", "coordinates": [10.990165, 50.889879]}}, {"type": "Feature", "properties": {"NAME": "Friedhof Ermstedt"}, "geometry": {"type": "Point", "coordinates": [10.885721, 50.96866]}}, {"type": "Feature", "properties": {"NAME": "Friedhof Frienstedt"}, "geometry": {"type": "Point", "coordinates": [10.912605, 50.956082]}}, {"type": "Feature", "properties": {"NAME": "Friedhof Gispersleben"}, "geometry": {"type": "Point", "coordinates": [10.988502, 51.025321]}}, {"type": "Feature", "properties": {"NAME": "Friedhof Gottstedt"}, "geometry": {"type": "Point", "coordinates": [10.911313, 50.96952]}}, {"type": "Feature", "properties": {"NAME": "Friedhof Großrettbach"}, "geometry": {"type": "Point", "coordinates": [10.861039, 50.923914]}}, {"type": "Feature", "properties": {"NAME": "Friedhof Hochheim"}, "geometry": {"type": "Point", "coordinates": [10.993596, 50.955403]}}, {"type": "Feature", "properties": {"NAME": "Friedhof Hochstedt"}, "geometry": {"type": "Point", "coordinates": [11.138402, 50.983938]}}, {"type": "Feature", "properties": {"NAME": "Friedhof Ingersleben"}, "geometry": {"type": "Point", "coordinates": [10.934147, 50.920881]}}, {"type": "Feature", "properties": {"NAME": "Friedhof Kerspleben"}, "geometry": {"type": "Point", "coordinates": [11.10021, 51.005871]}}, {"type": "Feature", "properties": {"NAME": "Friedhof Kleinrettbach"}, "geometry": {"type": "Point", "coordinates": [10.885075, 50.933755]}}, {"type": "Feature", "properties": {"NAME": "Friedhof Klettbach"}, "geometry": {"type": "Point", "coordinates": [11.151928, 50.915199]}}, {"type": "Feature", "properties": {"NAME": "Friedhof Kornhochheim"}, "geometry": {"type": "Point", "coordinates": [10.915674, 50.900989]}}, {"type": "Feature", "properties": {"NAME": "Friedhof Kühnhausen"}, "geometry": {"type": "Point", "coordinates": [10.973785, 51.034597]}}, {"type": "Feature", "properties": {"NAME": "Friedhof Linderbach"}, "geometry": {"type": "Point", "coordinates": [11.102369, 50.977964]}}, {"type": "Feature", "properties": {"NAME": "Friedhof Marbach"}, "geometry": {"type": "Point", "coordinates": [10.978515, 50.992754]}}, {"type": "Feature", "properties": {"NAME": "Friedhof Melchendorf"}, "geometry": {"type": "Point", "coordinates": [11.071795, 50.954509]}}, {"type": "Feature", "properties": {"NAME": "Friedhof Mittelhausen"}, "geometry": {"type": "Point", "coordinates": [11.009698, 51.042472]}}, {"type": "Feature", "properties": {"NAME": "Friedhof Molsdorf"}, "geometry": {"type": "Point", "coordinates": [10.958333, 50.910633]}}, {"type": "Feature", "properties": {"NAME": "Friedhof Möbisburg"}, "geometry": {"type": "Point", "coordinates": [10.991355, 50.926637]}}, {"type": "Feature", "properties": {"NAME": "Friedhof Neudietendorf"}, "geometry": {"type": "Point", "coordinates": [10.917278, 50.908118]}}, {"type": "Feature", "properties": {"NAME": "Friedhof Niedernissa"}, "geometry": {"type": "Point", "coordinates": [11.101947, 50.951483]}}, {"type": "Feature", "properties": {"NAME": "Friedhof Rohda"}, "geometry": {"type": "Point", "coordinates": [11.126967, 50.945233]}}, {"type": "Feature", "properties": {"NAME": "Friedhof Salomonsborn"}, "geometry": {"type": "Point", "coordinates": [10.947781, 50.999034]}}, {"type": "Feature", "properties": {"NAME": "Friedhof Schmira"}, "geometry": {"type": "Point", "coordinates": [10.972782, 50.957137]}}, {"type": "Feature", "properties": {"NAME": "Friedhof Schwerborn"}, "geometry": {"type": "Point", "coordinates": [11.076106, 51.036928]}}, {"type": "Feature", "properties": {"NAME": "Friedhof Stotternheim"}, "geometry": {"type": "Point", "coordinates": [11.041795, 51.054835]}}, {"type": "Feature", "properties": {"NAME": "Friedhof Tiefthal"}, "geometry": {"type": "Point", "coordinates": [10.94765, 51.02323]}}, {"type": "Feature", "properties": {"NAME": "Friedhof Töttelstädt"}, "geometry": {"type": "Point", "coordinates": [10.880098, 51.010157]}}, {"type": "Feature", "properties": {"NAME": "Friedhof Töttleben"}, "geometry": {"type": "Point", "coordinates": [11.117059, 51.018361]}}, {"type": "Feature", "properties": {"NAME": "Friedhof Urbich"}, "geometry": {"type": "Point", "coordinates": [11.096234, 50.95975]}}, {"type": "Feature", "properties": {"NAME": "Friedhof Vieselbach"}, "geometry": {"type": "Point", "coordinates": [11.149165, 50.996935]}}, {"type": "Feature", "properties": {"NAME": "Friedhof Wallichen"}, "geometry": {"type": "Point", "coordinates": [11.151636, 51.010771]}}, {"type": "Feature", "properties": {"NAME": "Friedhof Walschleben"}, "geometry": {"type": "Point", "coordinates": [10.933643, 51.065459]}}, {"type": "Feature", "properties": {"NAME": "Friedhof Waltersleben"}, "geometry": {"type": "Point", "coordinates": [11.023327, 50.917071]}}, {"type": "Feature", "properties": {"NAME": "Friedhof Wandersleben"}, "geometry": {"type": "Point", "coordinates": [10.854412, 50.897098]}}, {"type": "Feature", "properties": {"NAME": "Friedhof Windischholzhausen"}, "geometry": {"type": "Point", "coordinates": [11.089377, 50.947307]}}, {"type": "Feature", "properties": {"NAME": "Hauptfriedhof Erfurt"}, "geometry": {"type": "Point", "coordinates": [10.988118, 50.969424]}}, {"type": "Feature", "properties": {"NAME": "Herrnhuter Gottesacker"}, "geometry": {"type": "Point", "coordinates": [10.910437, 50.911533]}}, {"type": "Feature", "properties": {"NAME": "historische Friedhof Stedten"}, "geometry": {"type": "Point", "coordinates": [10.98167, 50.928276]}}, {"type": "Feature", "properties": {"NAME": "Neuer jüdischer Friedhof"}, "geometry": {"type": "Point", "coordinates": [11.038505, 50.957205]}}, {"type": "Feature", "properties": {"NAME": "Tierfriedhof am Lutherstein"}, "geometry": {"type": "Point", "coordinates": [11.069628, 51.048142]}}]}