{"type": "FeatureCollection", "features": [{"type": "Feature", "properties": {"NAME": "Am Fuchsgrund"}, "geometry": {"type": "Point", "coordinates": [11.014183, 50.99797]}}, {"type": "Feature", "properties": {"NAME": "Am Jacobsweg"}, "geometry": {"type": "Point", "coordinates": [11.105052, 51.007046]}}, {"type": "Feature", "properties": {"NAME": "Am Nordpark"}, "geometry": {"type": "Point", "coordinates": [11.020149, 50.989344]}}, {"type": "Feature", "properties": {"NAME": "Am Peterbach"}, "geometry": {"type": "Point", "coordinates": [11.10862, 50.963149]}}, {"type": "Feature", "properties": {"NAME": "Am Waldblick"}, "geometry": {"type": "Point", "coordinates": [11.045006, 50.95564]}}, {"type": "Feature", "properties": {"NAME": "An der Schmalen Gera"}, "geometry": {"type": "Point", "coordinates": [11.024356, 50.98418]}}, {"type": "Feature", "properties": {"NAME": "Arche Noah"}, "geometry": {"type": "Point", "coordinates": [10.9965, 51.012376]}}, {"type": "Feature", "properties": {"NAME": "Brühler Gartenzwerge"}, "geometry": {"type": "Point", "coordinates": [11.018847, 50.973096]}}, {"type": "Feature", "properties": {"NAME": "Buchenberg"}, "geometry": {"type": "Point", "coordinates": [11.087631, 50.943167]}}, {"type": "Feature", "properties": {"NAME": "Bunter Schmetterling"}, "geometry": {"type": "Point", "coordinates": [10.970246, 50.953635]}}, {"type": "Feature", "properties": {"NAME": "Campus-Kinderland"}, "geometry": {"type": "Point", "coordinates": [11.007879, 50.991772]}}, {"type": "Feature", "properties": {"NAME": "Daberstedter Räuberland"}, "geometry": {"type": "Point", "coordinates": [11.049921, 50.968436]}}, {"type": "Feature", "properties": {"NAME": "Die kleinen Europäer"}, "geometry": {"type": "Point", "coordinates": [11.006155, 51.00175]}}, {"type": "Feature", "properties": {"NAME": "Die Linderbacher"}, "geometry": {"type": "Point", "coordinates": [11.101804, 50.978858]}}, {"type": "Feature", "properties": {"NAME": "Dittelstedter Knirpse"}, "geometry": {"type": "Point", "coordinates": [11.073674, 50.966332]}}, {"type": "Feature", "properties": {"NAME": "Domkindergarten St. Marien"}, "geometry": {"type": "Point", "coordinates": [11.023214, 50.974426]}}, {"type": "Feature", "properties": {"NAME": "Evangelische Luther-Kindertagesstätte"}, "geometry": {"type": "Point", "coordinates": [11.027455, 50.991327]}}, {"type": "Feature", "properties": {"NAME": "Evangelische Moritzkindertagesstätte"}, "geometry": {"type": "Point", "coordinates": [11.012144, 50.977566]}}, {"type": "Feature", "properties": {"NAME": "Evangelischer Johannes Kindergarten"}, "geometry": {"type": "Point", "coordinates": [10.997449, 50.957057]}}, {"type": "Feature", "properties": {"NAME": "Evangelischer Kindergarten der Thomasgemeinde"}, "geometry": {"type": "Point", "coordinates": [11.021718, 50.969189]}}, {"type": "Feature", "properties": {"NAME": "Evangelischer Kindergarten Louise Mücke"}, "geometry": {"type": "Point", "coordinates": [11.024092, 50.973662]}}, {"type": "Feature", "properties": {"NAME": "Evangelischer Pergamenterkindergarten"}, "geometry": {"type": "Point", "coordinates": [11.026799, 50.979436]}}, {"type": "Feature", "properties": {"NAME": "Evangelischer Predigerkindergarten"}, "geometry": {"type": "Point", "coordinates": [11.027606, 50.976303]}}, {"type": "Feature", "properties": {"NAME": "Evangelisches Kinderhaus am Drosselberg"}, "geometry": {"type": "Point", "coordinates": [11.079586, 50.948091]}}, {"type": "Feature", "properties": {"NAME": "Freier Kindergarten Hirnzigenweg"}, "geometry": {"type": "Point", "coordinates": [11.045141, 50.966506]}}, {"type": "Feature", "properties": {"NAME": "Fröbelkindergarten am Borntal"}, "geometry": {"type": "Point", "coordinates": [11.012625, 50.980603]}}, {"type": "Feature", "properties": {"NAME": "Fuchs und Elster"}, "geometry": {"type": "Point", "coordinates": [11.030543, 50.991599]}}, {"type": "Feature", "properties": {"NAME": "Gartenkinder"}, "geometry": {"type": "Point", "coordinates": [11.022235, 50.992191]}}, {"type": "Feature", "properties": {"NAME": "Gisperslebener Entdecker"}, "geometry": {"type": "Point", "coordinates": [10.987468, 51.01849]}}, {"type": "Feature", "properties": {"NAME": "Glückspilz"}, "geometry": {"type": "Point", "coordinates": [10.957428, 50.974091]}}, {"type": "Feature", "properties": {"NAME": "Glühwürmchen"}, "geometry": {"type": "Point", "coordinates": [11.039191, 51.014337]}}, {"type": "Feature", "properties": {"NAME": "Hanseviertel"}, "geometry": {"type": "Point", "coordinates": [11.043617, 50.988961]}}, {"type": "Feature", "properties": {"NAME": "Haselnußweg"}, "geometry": {"type": "Point", "coordinates": [11.058029, 50.948814]}}, {"type": "Feature", "properties": {"NAME": "Haus der Grashüpfer"}, "geometry": {"type": "Point", "coordinates": [10.990934, 51.018329]}}, {"type": "Feature", "properties": {"NAME": "Johannesplatzkäfer"}, "geometry": {"type": "Point", "coordinates": [11.02748, 50.994694]}}, {"type": "Feature", "properties": {"NAME": "Kastanienhof"}, "geometry": {"type": "Point", "coordinates": [11.030179, 50.988292]}}, {"type": "Feature", "properties": {"NAME": "Kindergarten am Wiesenhügel"}, "geometry": {"type": "Point", "coordinates": [11.06588, 50.94875]}}, {"type": "Feature", "properties": {"NAME": "Kindergarten St. Dionysius"}, "geometry": {"type": "Point", "coordinates": [10.990545, 50.924776]}}, {"type": "Feature", "properties": {"NAME": "Kindergarten Windischholzhausen"}, "geometry": {"type": "Point", "coordinates": [11.090497, 50.94736]}}, {"type": "Feature", "properties": {"NAME": "Kinderland 1"}, "geometry": {"type": "Point", "coordinates": [11.024929, 50.965642]}}, {"type": "Feature", "properties": {"NAME": "Kinderland 2"}, "geometry": {"type": "Point", "coordinates": [11.038767, 50.9874]}}, {"type": "Feature", "properties": {"NAME": "Kinderland am Zoo"}, "geometry": {"type": "Point", "coordinates": [11.025055, 51.017693]}}, {"type": "Feature", "properties": {"NAME": "Kinderwelt"}, "geometry": {"type": "Point", "coordinates": [11.026951, 50.983772]}}, {"type": "Feature", "properties": {"NAME": "KiTa im Brühl"}, "geometry": {"type": "Point", "coordinates": [11.013293, 50.976254]}}, {"type": "Feature", "properties": {"NAME": "LICHTblick"}, "geometry": {"type": "Point", "coordinates": [11.001882, 51.009549]}}, {"type": "Feature", "properties": {"NAME": "Lindenparadies"}, "geometry": {"type": "Point", "coordinates": [11.037597, 50.980909]}}, {"type": "Feature", "properties": {"NAME": "Löwenzahn"}, "geometry": {"type": "Point", "coordinates": [11.049199, 50.983633]}}, {"type": "Feature", "properties": {"NAME": "Marbacher Lausbuben"}, "geometry": {"type": "Point", "coordinates": [10.98417, 50.994724]}}, {"type": "Feature", "properties": {"NAME": "Marienkäfer am Ringelberg"}, "geometry": {"type": "Point", "coordinates": [11.059072, 50.988236]}}, {"type": "Feature", "properties": {"NAME": "Montessori Integrative Kindertagesstätte"}, "geometry": {"type": "Point", "coordinates": [11.015847, 50.991092]}}, {"type": "Feature", "properties": {"NAME": "Naturkindergarten am Wasserweg"}, "geometry": {"type": "Point", "coordinates": [10.990942, 50.945902]}}, {"type": "Feature", "properties": {"NAME": "Petersbergwichtel"}, "geometry": {"type": "Point", "coordinates": [11.020026, 50.980894]}}, {"type": "Feature", "properties": {"NAME": "Pfiffikus"}, "geometry": {"type": "Point", "coordinates": [11.072922, 50.953987]}}, {"type": "Feature", "properties": {"NAME": "Rabennest"}, "geometry": {"type": "Point", "coordinates": [11.057175, 50.962802]}}, {"type": "Feature", "properties": {"NAME": "Rasselbande"}, "geometry": {"type": "Point", "coordinates": [11.013885, 50.966948]}}, {"type": "Feature", "properties": {"NAME": "Regenbogen"}, "geometry": {"type": "Point", "coordinates": [11.026262, 51.001738]}}, {"type": "Feature", "properties": {"NAME": "Regenbogenland"}, "geometry": {"type": "Point", "coordinates": [11.030445, 50.999052]}}, {"type": "Feature", "properties": {"NAME": "Riethspatzen"}, "geometry": {"type": "Point", "coordinates": [11.018469, 51.006983]}}, {"type": "Feature", "properties": {"NAME": "Riethzwerge"}, "geometry": {"type": "Point", "coordinates": [11.010616, 51.008539]}}, {"type": "Feature", "properties": {"NAME": "Ringelblume"}, "geometry": {"type": "Point", "coordinates": [11.071372, 50.993015]}}, {"type": "Feature", "properties": {"NAME": "Ringelblümchen"}, "geometry": {"type": "Point", "coordinates": [11.075719, 50.989044]}}, {"type": "Feature", "properties": {"NAME": "Schmetterling"}, "geometry": {"type": "Point", "coordinates": [11.008552, 50.97326]}}, {"type": "Feature", "properties": {"NAME": "Schwemmbacher Spatzen"}, "geometry": {"type": "Point", "coordinates": [11.047234, 50.962269]}}, {"type": "Feature", "properties": {"NAME": "Sommersprosse"}, "geometry": {"type": "Point", "coordinates": [11.058606, 50.959925]}}, {"type": "Feature", "properties": {"NAME": "Spatzennest am Park"}, "geometry": {"type": "Point", "coordinates": [11.007206, 51.005712]}}, {"type": "Feature", "properties": {"NAME": "Spatzennest am Zoo"}, "geometry": {"type": "Point", "coordinates": [11.021334, 51.015283]}}, {"type": "Feature", "properties": {"NAME": "Springmäuse am Südpark"}, "geometry": {"type": "Point", "coordinates": [11.042092, 50.959076]}}, {"type": "Feature", "properties": {"NAME": "St. Elisabeth und St. Bonifatius"}, "geometry": {"type": "Point", "coordinates": [10.99955, 50.95705]}}, {"type": "Feature", "properties": {"NAME": "St. Franziskus"}, "geometry": {"type": "Point", "coordinates": [11.02585, 50.971033]}}, {"type": "Feature", "properties": {"NAME": "St. Josef"}, "geometry": {"type": "Point", "coordinates": [11.022092, 50.997647]}}, {"type": "Feature", "properties": {"NAME": "St. Nikolaus"}, "geometry": {"type": "Point", "coordinates": [11.073331, 50.951275]}}, {"type": "Feature", "properties": {"NAME": "St. Ursula"}, "geometry": {"type": "Point", "coordinates": [11.036425, 50.975899]}}, {"type": "Feature", "properties": {"NAME": "St. Vinzenz"}, "geometry": {"type": "Point", "coordinates": [11.022272, 50.973118]}}, {"type": "Feature", "properties": {"NAME": "Steigerburg"}, "geometry": {"type": "Point", "coordinates": [11.026495, 50.96098]}}, {"type": "Feature", "properties": {"NAME": "Stiftskindergarten"}, "geometry": {"type": "Point", "coordinates": [11.036407, 50.981968]}}, {"type": "Feature", "properties": {"NAME": "Strolche"}, "geometry": {"type": "Point", "coordinates": [11.023955, 50.970025]}}, {"type": "Feature", "properties": {"NAME": "Villa Steigerzwerge"}, "geometry": {"type": "Point", "coordinates": [11.032061, 50.960969]}}]}