{"type": "FeatureCollection", "features": [{"type": "Feature", "properties": {"NAME": "Alte Synagoge Erfurt"}, "geometry": {"type": "Point", "coordinates": [11.029246, 50.978672]}}, {"type": "Feature", "properties": {"NAME": "Angermuseum - Barfüßerkirche"}, "geometry": {"type": "Point", "coordinates": [11.030681, 50.97571]}}, {"type": "Feature", "properties": {"NAME": "Angermuseum Erfurt"}, "geometry": {"type": "Point", "coordinates": [11.034318, 50.975645]}}, {"type": "Feature", "properties": {"NAME": "Bartholomäusturm"}, "geometry": {"type": "Point", "coordinates": [11.032485, 50.975142]}}, {"type": "Feature", "properties": {"NAME": "Benary-Speicher – Druckereimuseum und Schaudepot"}, "geometry": {"type": "Point", "coordinates": [11.016604, 50.971092]}}, {"type": "Feature", "properties": {"NAME": "Born-Senf-Museum"}, "geometry": {"type": "Point", "coordinates": [11.032407, 50.978597]}}, {"type": "Feature", "properties": {"NAME": "DDR-Ausstellung DEUDERA"}, "geometry": {"type": "Point", "coordinates": [11.024377, 50.999185]}}, {"type": "Feature", "properties": {"NAME": "Der Petersberg - eine spannende Zeitreise"}, "geometry": {"type": "Point", "coordinates": [11.018897, 50.977568]}}, {"type": "Feature", "properties": {"NAME": "Deutsches Gartenbaumuseum"}, "geometry": {"type": "Point", "coordinates": [11.00772, 50.967616]}}, {"type": "Feature", "properties": {"NAME": "Erinnerungsort Topf & Söhne"}, "geometry": {"type": "Point", "coordinates": [11.04865, 50.97225]}}, {"type": "Feature", "properties": {"NAME": "Erlebnisportal Thüringen - Erfurt-Petersberg"}, "geometry": {"type": "Point", "coordinates": [11.019727, 50.97882]}}, {"type": "Feature", "properties": {"NAME": "Heimat- und Waidmuseum"}, "geometry": {"type": "Point", "coordinates": [11.137564, 50.984894]}}, {"type": "Feature", "properties": {"NAME": "Heimatstube Alach"}, "geometry": {"type": "Point", "coordinates": [10.929591, 50.986278]}}, {"type": "Feature", "properties": {"NAME": "Kolonialwaren - Kurt John"}, "geometry": {"type": "Point", "coordinates": [11.008695, 51.042842]}}, {"type": "Feature", "properties": {"NAME": "Krämerbrücke"}, "geometry": {"type": "Point", "coordinates": [11.030603, 50.978383]}}, {"type": "Feature", "properties": {"NAME": "Luftschutzkeller"}, "geometry": {"type": "Point", "coordinates": [11.030124, 50.974524]}}, {"type": "Feature", "properties": {"NAME": "Margaretha-Reichardt-Haus"}, "geometry": {"type": "Point", "coordinates": [10.979365, 50.929322]}}, {"type": "Feature", "properties": {"NAME": "Museum für DDR-Produkte"}, "geometry": {"type": "Point", "coordinates": [11.010471, 50.972887]}}, {"type": "Feature", "properties": {"NAME": "Museum für Thüringer Volkskunde"}, "geometry": {"type": "Point", "coordinates": [11.035369, 50.981865]}}, {"type": "Feature", "properties": {"NAME": "Naturkundemuseum"}, "geometry": {"type": "Point", "coordinates": [11.026155, 50.976649]}}, {"type": "Feature", "properties": {"NAME": "Neue Mühle"}, "geometry": {"type": "Point", "coordinates": [11.030005, 50.976793]}}, {"type": "Feature", "properties": {"NAME": "Stadtmuseum Erfurt"}, "geometry": {"type": "Point", "coordinates": [11.03486, 50.979521]}}, {"type": "Feature", "properties": {"NAME": "Zentrale Restaurierungswerkstätten"}, "geometry": {"type": "Point", "coordinates": [11.036015, 50.980915]}}]}