{"type": "FeatureCollection", "features": [{"type": "Feature", "properties": {"NAME": "Aktiv-Schule Erfurt"}, "geometry": {"type": "Point", "coordinates": [11.085062, 50.943312]}}, {"type": "Feature", "properties": {"NAME": "Albert-Schweitzer-Gymnasium"}, "geometry": {"type": "Point", "coordinates": [11.012498, 51.00448]}}, {"type": "Feature", "properties": {"NAME": "Am Hirnzigenpark"}, "geometry": {"type": "Point", "coordinates": [11.047734, 50.96602]}}, {"type": "Feature", "properties": {"NAME": "Am Schwemmbach"}, "geometry": {"type": "Point", "coordinates": [11.04664, 50.962747]}}, {"type": "Feature", "properties": {"NAME": "Am Urbach"}, "geometry": {"type": "Point", "coordinates": [11.094339, 50.961737]}}, {"type": "Feature", "properties": {"NAME": "Andreas-Gordon-Schule"}, "geometry": {"type": "Point", "coordinates": [11.033611, 50.978859]}}, {"type": "Feature", "properties": {"NAME": "Andreas-Gordon-Schule (Hügelschule)"}, "geometry": {"type": "Point", "coordinates": [11.026977, 50.98189]}}, {"type": "Feature", "properties": {"NAME": "Andreas-Gordon-Schule (Neuerbeschule)"}, "geometry": {"type": "Point", "coordinates": [11.040185, 50.975934]}}, {"type": "Feature", "properties": {"NAME": "Astrid-Lindgren-Schule"}, "geometry": {"type": "Point", "coordinates": [11.080754, 50.948823]}}, {"type": "Feature", "properties": {"NAME": "Aus- und Fortbildungszentrum Erfurt"}, "geometry": {"type": "Point", "coordinates": [11.007603, 51.01635]}}, {"type": "Feature", "properties": {"NAME": "Barfüßerschule"}, "geometry": {"type": "Point", "coordinates": [11.030346, 50.976045]}}, {"type": "Feature", "properties": {"NAME": "Bechsteinschule"}, "geometry": {"type": "Point", "coordinates": [11.02426, 50.994442]}}, {"type": "Feature", "properties": {"NAME": "Bergkreisschule Alach"}, "geometry": {"type": "Point", "coordinates": [10.933165, 50.986201]}}, {"type": "Feature", "properties": {"NAME": "Bildungs- und Wissenschaftszentrum der Bundesfinanzverwaltung"}, "geometry": {"type": "Point", "coordinates": [11.041944, 50.958095]}}, {"type": "Feature", "properties": {"NAME": "Bildungswerk für Gesundheitsberufe"}, "geometry": {"type": "Point", "coordinates": [11.040723, 50.991033]}}, {"type": "Feature", "properties": {"NAME": "BZT Bildungszentrum Handel und Dienstleistungen"}, "geometry": {"type": "Point", "coordinates": [11.011832, 50.969026]}}, {"type": "Feature", "properties": {"NAME": "Christian-Reichart-Schule"}, "geometry": {"type": "Point", "coordinates": [10.990082, 50.963793]}}, {"type": "Feature", "properties": {"NAME": "Christophorus-Schule Erfurt"}, "geometry": {"type": "Point", "coordinates": [11.022457, 50.993696]}}, {"type": "Feature", "properties": {"NAME": "CJD Christophorus-Schule"}, "geometry": {"type": "Point", "coordinates": [10.995235, 51.011109]}}, {"type": "Feature", "properties": {"NAME": "DEHOGA Thüringen"}, "geometry": {"type": "Point", "coordinates": [11.005716, 50.978655]}}, {"type": "Feature", "properties": {"NAME": "Edith-Stein-Schule"}, "geometry": {"type": "Point", "coordinates": [11.037472, 50.976059]}}, {"type": "Feature", "properties": {"NAME": "Ernst-Benary-Schule"}, "geometry": {"type": "Point", "coordinates": [11.007181, 50.977569]}}, {"type": "Feature", "properties": {"NAME": "Evangelische Gemeinschaftsschule Erfurt"}, "geometry": {"type": "Point", "coordinates": [11.037538, 50.989758]}}, {"type": "Feature", "properties": {"NAME": "Evangelische Grundschule Erfurt"}, "geometry": {"type": "Point", "coordinates": [11.023796, 50.972839]}}, {"type": "Feature", "properties": {"NAME": "Floranum"}, "geometry": {"type": "Point", "coordinates": [11.007343, 50.977548]}}, {"type": "Feature", "properties": {"NAME": "Freie Waldorfschule Erfurt"}, "geometry": {"type": "Point", "coordinates": [10.985347, 50.938112]}}, {"type": "Feature", "properties": {"NAME": "Friedrich-Schiller-Schule"}, "geometry": {"type": "Point", "coordinates": [11.027891, 50.966782]}}, {"type": "Feature", "properties": {"NAME": "Gemeinschaftsschule am Großen Herrenberg"}, "geometry": {"type": "Point", "coordinates": [11.074791, 50.953796]}}, {"type": "Feature", "properties": {"NAME": "Gemeinschaftsschule am Roten Berg"}, "geometry": {"type": "Point", "coordinates": [11.019535, 51.016763]}}, {"type": "Feature", "properties": {"NAME": "Gemeinschaftsschule Kerspleben"}, "geometry": {"type": "Point", "coordinates": [11.097747, 51.004096]}}, {"type": "Feature", "properties": {"NAME": "Gemeinschaftsschule Otto Lilienthal"}, "geometry": {"type": "Point", "coordinates": [11.019916, 51.004913]}}, {"type": "Feature", "properties": {"NAME": "Grund- und Regelschule Neudietendorf"}, "geometry": {"type": "Point", "coordinates": [10.91006, 50.910103]}}, {"type": "Feature", "properties": {"NAME": "Grundschule"}, "geometry": {"type": "Point", "coordinates": [10.935499, 51.065151]}}, {"type": "Feature", "properties": {"NAME": "Grundschule \"An der Geraaue\" GS 28"}, "geometry": {"type": "Point", "coordinates": [10.999733, 51.012573]}}, {"type": "Feature", "properties": {"NAME": "Grundschule am Berliner Platz"}, "geometry": {"type": "Point", "coordinates": [11.005805, 51.004218]}}, {"type": "Feature", "properties": {"NAME": "Grundschule am Johannesplatz"}, "geometry": {"type": "Point", "coordinates": [11.032628, 50.994573]}}, {"type": "Feature", "properties": {"NAME": "Grundschule am Schwemmbach"}, "geometry": {"type": "Point", "coordinates": [11.046785, 50.963373]}}, {"type": "Feature", "properties": {"NAME": "Grundschule am Steigerwald"}, "geometry": {"type": "Point", "coordinates": [11.02801, 50.966256]}}, {"type": "Feature", "properties": {"NAME": "Grundschule Johannesschule"}, "geometry": {"type": "Point", "coordinates": [11.030236, 50.988986]}}, {"type": "Feature", "properties": {"NAME": "Grundschule Stotternheim"}, "geometry": {"type": "Point", "coordinates": [11.037537, 51.052865]}}, {"type": "Feature", "properties": {"NAME": "Grundschule Vieselbach (Ausweichschule)"}, "geometry": {"type": "Point", "coordinates": [11.14521, 50.998414]}}, {"type": "Feature", "properties": {"NAME": "Hans Christian Andersen Grundschule"}, "geometry": {"type": "Point", "coordinates": [10.935385, 51.066909]}}, {"type": "Feature", "properties": {"NAME": "Heinrich-Hertz-Gymnasium"}, "geometry": {"type": "Point", "coordinates": [11.025838, 51.016639]}}, {"type": "Feature", "properties": {"NAME": "Heinrich-Mann-Gymnasium"}, "geometry": {"type": "Point", "coordinates": [11.031581, 50.964725]}}, {"type": "Feature", "properties": {"NAME": "Humboldt-Grundschule"}, "geometry": {"type": "Point", "coordinates": [11.039019, 50.978252]}}, {"type": "Feature", "properties": {"NAME": "Hügelschule"}, "geometry": {"type": "Point", "coordinates": [11.026958, 50.982021]}}, {"type": "Feature", "properties": {"NAME": "Integrierte Gesamtschule Erfurt"}, "geometry": {"type": "Point", "coordinates": [11.03181, 50.994415]}}, {"type": "Feature", "properties": {"NAME": "Internationale Gemeinschaftsschule Erfurt"}, "geometry": {"type": "Point", "coordinates": [11.057756, 50.964344]}}, {"type": "Feature", "properties": {"NAME": "Jacob-und-Wilhelm-Grimm-Schule"}, "geometry": {"type": "Point", "coordinates": [11.008584, 50.983523]}}, {"type": "Feature", "properties": {"NAME": "Jenaplanschule Erfurt"}, "geometry": {"type": "Point", "coordinates": [11.019913, 50.990721]}}, {"type": "Feature", "properties": {"NAME": "Johannesschule"}, "geometry": {"type": "Point", "coordinates": [11.030212, 50.988776]}}, {"type": "Feature", "properties": {"NAME": "Jugendberufsförderung ERFURT"}, "geometry": {"type": "Point", "coordinates": [11.024064, 50.989334]}}, {"type": "Feature", "properties": {"NAME": "Kolping - Bildungswerk Thüringen e.V."}, "geometry": {"type": "Point", "coordinates": [11.021089, 50.996698]}}, {"type": "Feature", "properties": {"NAME": "learn science"}, "geometry": {"type": "Point", "coordinates": [11.020848, 50.972418]}}, {"type": "Feature", "properties": {"NAME": "Ludwig-Erhard-Schule"}, "geometry": {"type": "Point", "coordinates": [11.02459, 50.986562]}}, {"type": "Feature", "properties": {"NAME": "Marie-Elise-Kayser-Schule"}, "geometry": {"type": "Point", "coordinates": [11.041405, 50.982579]}}, {"type": "Feature", "properties": {"NAME": "Montessori-Integrationsschule"}, "geometry": {"type": "Point", "coordinates": [11.061881, 50.953972]}}, {"type": "Feature", "properties": {"NAME": "Moritzschule"}, "geometry": {"type": "Point", "coordinates": [11.02239, 50.984883]}}, {"type": "Feature", "properties": {"NAME": "Musikschule Erfurt"}, "geometry": {"type": "Point", "coordinates": [11.029825, 50.975762]}}, {"type": "Feature", "properties": {"NAME": "my Music Company"}, "geometry": {"type": "Point", "coordinates": [11.030499, 50.96755]}}, {"type": "Feature", "properties": {"NAME": "Pierre-de-Coubertin-Gymnasium"}, "geometry": {"type": "Point", "coordinates": [11.040237, 50.958408]}}, {"type": "Feature", "properties": {"NAME": "Private Fachschule für Technik und Wirtschaft Erfurt"}, "geometry": {"type": "Point", "coordinates": [11.033227, 51.004708]}}, {"type": "Feature", "properties": {"NAME": "Puschkinschule"}, "geometry": {"type": "Point", "coordinates": [11.023897, 50.969304]}}, {"type": "Feature", "properties": {"NAME": "Regelschule \"An der Geraaue\" RS 23"}, "geometry": {"type": "Point", "coordinates": [10.999815, 51.01221]}}, {"type": "Feature", "properties": {"NAME": "Regelschule Elxleben"}, "geometry": {"type": "Point", "coordinates": [10.949038, 51.044394]}}, {"type": "Feature", "properties": {"NAME": "Regenbogen"}, "geometry": {"type": "Point", "coordinates": [11.026809, 51.001601]}}, {"type": "Feature", "properties": {"NAME": "Regenbogen"}, "geometry": {"type": "Point", "coordinates": [11.027017, 51.000038]}}, {"type": "Feature", "properties": {"NAME": "Riethschule"}, "geometry": {"type": "Point", "coordinates": [11.013527, 51.001779]}}, {"type": "Feature", "properties": {"NAME": "Ronmanshow Bike & Racing School"}, "geometry": {"type": "Point", "coordinates": [10.986235, 50.994684]}}, {"type": "Feature", "properties": {"NAME": "Schule am Andreasried"}, "geometry": {"type": "Point", "coordinates": [11.007634, 51.00187]}}, {"type": "Feature", "properties": {"NAME": "Schule am Südpark"}, "geometry": {"type": "Point", "coordinates": [11.039956, 50.966546]}}, {"type": "Feature", "properties": {"NAME": "Schule am Wiesenhügel"}, "geometry": {"type": "Point", "coordinates": [11.065498, 50.951368]}}, {"type": "Feature", "properties": {"NAME": "Schule am Zoopark"}, "geometry": {"type": "Point", "coordinates": [11.033773, 51.018876]}}, {"type": "Feature", "properties": {"NAME": "Sebastian-Lucius-Schule"}, "geometry": {"type": "Point", "coordinates": [10.994197, 51.019173]}}, {"type": "Feature", "properties": {"NAME": "Staatliche Berufsbildende Schule 1 \"Sebastian-Lucius-Schule\""}, "geometry": {"type": "Point", "coordinates": [10.999017, 51.011369]}}, {"type": "Feature", "properties": {"NAME": "Staatliche Berufsbildende Schule 3 \"Ludwig-Erhard-Schule\""}, "geometry": {"type": "Point", "coordinates": [10.999436, 51.010954]}}, {"type": "Feature", "properties": {"NAME": "Staatliche Grundschule 20 „Gisperslebener Schule“"}, "geometry": {"type": "Point", "coordinates": [10.990547, 51.020449]}}, {"type": "Feature", "properties": {"NAME": "Staatliche Grundschule 21 \"Thomas Müntzer\" Erfurt"}, "geometry": {"type": "Point", "coordinates": [10.991185, 50.924911]}}, {"type": "Feature", "properties": {"NAME": "Staatliche Grundschule 28 \"An der Geraaue\""}, "geometry": {"type": "Point", "coordinates": [10.999843, 51.012311]}}, {"type": "Feature", "properties": {"NAME": "Staatliche Grundschule Neudietendorf"}, "geometry": {"type": "Point", "coordinates": [10.909054, 50.910248]}}, {"type": "Feature", "properties": {"NAME": "Staatliche Regelschule Herman Anders Krüger"}, "geometry": {"type": "Point", "coordinates": [10.90881, 50.910344]}}, {"type": "Feature", "properties": {"NAME": "Staatliches Gymnasium \"Hannah Arendt\" Erfurt"}, "geometry": {"type": "Point", "coordinates": [11.06081, 50.95757]}}, {"type": "Feature", "properties": {"NAME": "Steigerblick"}, "geometry": {"type": "Point", "coordinates": [10.99497, 50.955358]}}, {"type": "Feature", "properties": {"NAME": "Thomas-Mann-Schule"}, "geometry": {"type": "Point", "coordinates": [11.04946, 50.983967]}}, {"type": "Feature", "properties": {"NAME": "Ulrich-von-Hutten-Schule"}, "geometry": {"type": "Point", "coordinates": [11.025551, 50.983888]}}, {"type": "Feature", "properties": {"NAME": "von-Bülow-Gymnasium Neudietendorf"}, "geometry": {"type": "Point", "coordinates": [10.912791, 50.910595]}}, {"type": "Feature", "properties": {"NAME": "von-Bülow-Gymnasium Neudietendorf, Haus Apfelstädt"}, "geometry": {"type": "Point", "coordinates": [10.891709, 50.903067]}}, {"type": "Feature", "properties": {"NAME": "Waidschule"}, "geometry": {"type": "Point", "coordinates": [11.060928, 50.955647]}}, {"type": "Feature", "properties": {"NAME": "Walter-Gropius-Schule"}, "geometry": {"type": "Point", "coordinates": [10.994873, 50.9738]}}, {"type": "Feature", "properties": {"NAME": "Wilhelm-Busch-Schule"}, "geometry": {"type": "Point", "coordinates": [11.049721, 50.967322]}}]}