{"type": "FeatureCollection", "features": [{"type": "Feature", "properties": {"NAME": "Am Nordpark"}, "geometry": {"type": "Point", "coordinates": [11.010873, 50.999939]}}, {"type": "Feature", "properties": {"NAME": "Bowling Im Vilnius"}, "geometry": {"type": "Point", "coordinates": [11.014514, 51.005547]}}, {"type": "Feature", "properties": {"NAME": "C13 – Sporthalle"}, "geometry": {"type": "Point", "coordinates": [11.007916, 50.990347]}}, {"type": "Feature", "properties": {"NAME": "CrossFit Erfurt"}, "geometry": {"type": "Point", "coordinates": [11.024581, 51.010883]}}, {"type": "Feature", "properties": {"NAME": "Domsporthalle"}, "geometry": {"type": "Point", "coordinates": [11.023906, 50.975124]}}, {"type": "Feature", "properties": {"NAME": "Eissportzentrum Erfurt"}, "geometry": {"type": "Point", "coordinates": [11.035353, 50.96217]}}, {"type": "Feature", "properties": {"NAME": "Erfurter Tennisclub Rot-Weiß"}, "geometry": {"type": "Point", "coordinates": [11.029685, 50.95773]}}, {"type": "Feature", "properties": {"NAME": "Family Fun"}, "geometry": {"type": "Point", "coordinates": [10.934456, 50.989232]}}, {"type": "Feature", "properties": {"NAME": "FC Borntal Erfurt"}, "geometry": {"type": "Point", "coordinates": [11.011097, 50.982563]}}, {"type": "Feature", "properties": {"NAME": "Frau in Form"}, "geometry": {"type": "Point", "coordinates": [11.038842, 50.974301]}}, {"type": "Feature", "properties": {"NAME": "Get fit in 20 minutes"}, "geometry": {"type": "Point", "coordinates": [11.028343, 50.974123]}}, {"type": "Feature", "properties": {"NAME": "Gutenberg-Gymnasium"}, "geometry": {"type": "Point", "coordinates": [11.013625, 50.980999]}}, {"type": "Feature", "properties": {"NAME": "Hartwig-Gauder-Halle"}, "geometry": {"type": "Point", "coordinates": [11.037439, 50.962156]}}, {"type": "Feature", "properties": {"NAME": "Indoor Golf"}, "geometry": {"type": "Point", "coordinates": [11.013895, 50.961153]}}, {"type": "Feature", "properties": {"NAME": "Kegelbahn"}, "geometry": {"type": "Point", "coordinates": [10.891398, 50.902857]}}, {"type": "Feature", "properties": {"NAME": "Kletterhalle Erfurt - BLOCKPARK"}, "geometry": {"type": "Point", "coordinates": [11.014477, 50.961211]}}, {"type": "Feature", "properties": {"NAME": "Lago di Alpi - aqua-FUN® Wassersportcenter"}, "geometry": {"type": "Point", "coordinates": [11.041004, 51.073132]}}, {"type": "Feature", "properties": {"NAME": "Lok-Stadion"}, "geometry": {"type": "Point", "coordinates": [11.053247, 50.966893]}}, {"type": "Feature", "properties": {"NAME": "Mara"}, "geometry": {"type": "Point", "coordinates": [11.026156, 50.972439]}}, {"type": "Feature", "properties": {"NAME": "Modellflugplatz MFSV Gamstädt"}, "geometry": {"type": "Point", "coordinates": [10.914921, 50.924387]}}, {"type": "Feature", "properties": {"NAME": "MyJump Thüringen"}, "geometry": {"type": "Point", "coordinates": [11.030878, 51.00894]}}, {"type": "Feature", "properties": {"NAME": "Radrennbahn Andreasried"}, "geometry": {"type": "Point", "coordinates": [11.010448, 51.001562]}}, {"type": "Feature", "properties": {"NAME": "Riethsporthalle"}, "geometry": {"type": "Point", "coordinates": [11.013642, 51.003478]}}, {"type": "Feature", "properties": {"NAME": "Roland Matthes Schwimmhalle"}, "geometry": {"type": "Point", "coordinates": [11.03949, 50.963638]}}, {"type": "Feature", "properties": {"NAME": "Schießstand \"Am Badeloch\""}, "geometry": {"type": "Point", "coordinates": [10.898533, 50.906293]}}, {"type": "Feature", "properties": {"NAME": "Schwimmhalle Johannesplatz"}, "geometry": {"type": "Point", "coordinates": [11.033932, 50.996163]}}, {"type": "Feature", "properties": {"NAME": "SG Salomonsborn 04 e.V."}, "geometry": {"type": "Point", "coordinates": [10.952153, 50.998968]}}, {"type": "Feature", "properties": {"NAME": "Sport- und Wanderweg für Behinderte im Steiger"}, "geometry": {"type": "Point", "coordinates": [11.023581, 50.956803]}}, {"type": "Feature", "properties": {"NAME": "Sport-Club 2000"}, "geometry": {"type": "Point", "coordinates": [10.914579, 50.914809]}}, {"type": "Feature", "properties": {"NAME": "Sportanlage Eintracht 94 Erfurt e. V."}, "geometry": {"type": "Point", "coordinates": [11.041425, 50.989519]}}, {"type": "Feature", "properties": {"NAME": "Sportanlage Essener Straße 16"}, "geometry": {"type": "Point", "coordinates": [11.012986, 51.003045]}}, {"type": "Feature", "properties": {"NAME": "Sportforum Grubenstraße"}, "geometry": {"type": "Point", "coordinates": [11.035122, 51.003714]}}, {"type": "Feature", "properties": {"NAME": "Sportforum Johannesplatz"}, "geometry": {"type": "Point", "coordinates": [11.036413, 50.995976]}}, {"type": "Feature", "properties": {"NAME": "Sporthalle"}, "geometry": {"type": "Point", "coordinates": [11.028616, 50.96706]}}, {"type": "Feature", "properties": {"NAME": "Sporthalle"}, "geometry": {"type": "Point", "coordinates": [11.020135, 51.00491]}}, {"type": "Feature", "properties": {"NAME": "Sporthalle \"Am Südpark\""}, "geometry": {"type": "Point", "coordinates": [11.038333, 50.963379]}}, {"type": "Feature", "properties": {"NAME": "Sportpark Erfurt"}, "geometry": {"type": "Point", "coordinates": [11.009538, 51.011598]}}, {"type": "Feature", "properties": {"NAME": "Sportpark Johannesplatz"}, "geometry": {"type": "Point", "coordinates": [11.035456, 50.997364]}}, {"type": "Feature", "properties": {"NAME": "Sportplatz Apfelstädt"}, "geometry": {"type": "Point", "coordinates": [10.891184, 50.903783]}}, {"type": "Feature", "properties": {"NAME": "Sportplatz Bindersleben"}, "geometry": {"type": "Point", "coordinates": [10.957132, 50.972394]}}, {"type": "Feature", "properties": {"NAME": "Sportplatz Ingersleben"}, "geometry": {"type": "Point", "coordinates": [10.933831, 50.917904]}}, {"type": "Feature", "properties": {"NAME": "Sportplatz Kerspleben"}, "geometry": {"type": "Point", "coordinates": [11.097918, 51.005056]}}, {"type": "Feature", "properties": {"NAME": "Sportplatz Töttelstädt"}, "geometry": {"type": "Point", "coordinates": [10.879953, 51.007561]}}, {"type": "Feature", "properties": {"NAME": "Sportplatz Vieselbach"}, "geometry": {"type": "Point", "coordinates": [11.152239, 51.000163]}}, {"type": "Feature", "properties": {"NAME": "Sportplatz Windischholzhausen"}, "geometry": {"type": "Point", "coordinates": [11.090592, 50.944392]}}, {"type": "Feature", "properties": {"NAME": "Sportplatzanlage Am Flughafen"}, "geometry": {"type": "Point", "coordinates": [10.973125, 50.975708]}}, {"type": "Feature", "properties": {"NAME": "Sportzentrum Cyriaksgebreite"}, "geometry": {"type": "Point", "coordinates": [10.98412, 50.961916]}}, {"type": "Feature", "properties": {"NAME": "Steigerwaldstadion"}, "geometry": {"type": "Point", "coordinates": [11.037302, 50.960222]}}, {"type": "Feature", "properties": {"NAME": "Studio 1"}, "geometry": {"type": "Point", "coordinates": [11.067584, 50.95516]}}, {"type": "Feature", "properties": {"NAME": "SV Blau-Weiß 90 Hochstedt"}, "geometry": {"type": "Point", "coordinates": [11.139335, 50.982464]}}, {"type": "Feature", "properties": {"NAME": "SV Empor"}, "geometry": {"type": "Point", "coordinates": [10.994419, 50.957059]}}, {"type": "Feature", "properties": {"NAME": "SV Witterda"}, "geometry": {"type": "Point", "coordinates": [10.890117, 51.04508]}}, {"type": "Feature", "properties": {"NAME": "TC Tiergarten Erfurt"}, "geometry": {"type": "Point", "coordinates": [11.016829, 50.995985]}}, {"type": "Feature", "properties": {"NAME": "Tennisclub Optimus Erfurt"}, "geometry": {"type": "Point", "coordinates": [11.037113, 50.997509]}}, {"type": "Feature", "properties": {"NAME": "Trainingsplatz"}, "geometry": {"type": "Point", "coordinates": [10.944584, 51.051781]}}, {"type": "Feature", "properties": {"NAME": "Turnhalle Urbich"}, "geometry": {"type": "Point", "coordinates": [11.094408, 50.960496]}}, {"type": "Feature", "properties": {"NAME": "Turnzentrum Erfurt"}, "geometry": {"type": "Point", "coordinates": [11.020065, 51.005288]}}, {"type": "Feature", "properties": {"NAME": "TV Elxleben"}, "geometry": {"type": "Point", "coordinates": [10.945272, 51.051617]}}, {"type": "Feature", "properties": {"NAME": "von-Bülow Sporthalle"}, "geometry": {"type": "Point", "coordinates": [10.912606, 50.910322]}}, {"type": "Feature", "properties": {"NAME": "Wassersportschule Nautic"}, "geometry": {"type": "Point", "coordinates": [11.041848, 51.071608]}}, {"type": "Feature", "properties": {"NAME": "Zweifelderhalle"}, "geometry": {"type": "Point", "coordinates": [10.945853, 51.050669]}}]}