{"type": "FeatureCollection", "features": [{"type": "Feature", "properties": {"NAME": "Aral 1"}, "geometry": {"type": "Point", "coordinates": [11.037241, 51.003673]}}, {"type": "Feature", "properties": {"NAME": "Aral 2"}, "geometry": {"type": "Point", "coordinates": [11.051724, 50.958743]}}, {"type": "Feature", "properties": {"NAME": "Aral 3"}, "geometry": {"type": "Point", "coordinates": [11.061349, 50.968751]}}, {"type": "Feature", "properties": {"NAME": "Aral 4"}, "geometry": {"type": "Point", "coordinates": [10.998858, 50.965055]}}, {"type": "Feature", "properties": {"NAME": "Aral 5"}, "geometry": {"type": "Point", "coordinates": [10.986968, 51.013675]}}, {"type": "Feature", "properties": {"NAME": "Beetz & Co. GmbH"}, "geometry": {"type": "Point", "coordinates": [11.041236, 51.031413]}}, {"type": "Feature", "properties": {"NAME": "bft"}, "geometry": {"type": "Point", "coordinates": [11.080747, 50.977749]}}, {"type": "Feature", "properties": {"NAME": "CleanCar"}, "geometry": {"type": "Point", "coordinates": [11.039362, 50.997216]}}, {"type": "Feature", "properties": {"NAME": "Esso 1"}, "geometry": {"type": "Point", "coordinates": [11.054642, 50.973566]}}, {"type": "Feature", "properties": {"NAME": "Esso 2"}, "geometry": {"type": "Point", "coordinates": [10.975262, 50.972117]}}, {"type": "Feature", "properties": {"NAME": "Globus"}, "geometry": {"type": "Point", "coordinates": [11.108626, 50.975508]}}, {"type": "Feature", "properties": {"NAME": "HEM"}, "geometry": {"type": "Point", "coordinates": [11.102139, 50.975501]}}, {"type": "Feature", "properties": {"NAME": "Jet"}, "geometry": {"type": "Point", "coordinates": [11.012781, 51.015768]}}, {"type": "Feature", "properties": {"NAME": "Shell 1"}, "geometry": {"type": "Point", "coordinates": [11.047125, 50.984966]}}, {"type": "Feature", "properties": {"NAME": "Shell 2"}, "geometry": {"type": "Point", "coordinates": [11.124764, 50.978103]}}, {"type": "Feature", "properties": {"NAME": "Shell 3"}, "geometry": {"type": "Point", "coordinates": [11.035825, 51.019727]}}, {"type": "Feature", "properties": {"NAME": "Star 1"}, "geometry": {"type": "Point", "coordinates": [10.995254, 51.006187]}}, {"type": "Feature", "properties": {"NAME": "Star 2"}, "geometry": {"type": "Point", "coordinates": [11.027251, 51.012357]}}, {"type": "Feature", "properties": {"NAME": "tankpool24 1"}, "geometry": {"type": "Point", "coordinates": [11.008093, 51.017674]}}, {"type": "Feature", "properties": {"NAME": "tankpool24 2"}, "geometry": {"type": "Point", "coordinates": [11.128426, 50.983056]}}, {"type": "Feature", "properties": {"NAME": "Total 1"}, "geometry": {"type": "Point", "coordinates": [11.093803, 50.949489]}}, {"type": "Feature", "properties": {"NAME": "Total 2"}, "geometry": {"type": "Point", "coordinates": [11.018406, 51.009586]}}, {"type": "Feature", "properties": {"NAME": "TotalEnergies 1"}, "geometry": {"type": "Point", "coordinates": [11.002427, 51.002402]}}, {"type": "Feature", "properties": {"NAME": "TotalEnergies 2"}, "geometry": {"type": "Point", "coordinates": [11.038255, 50.986247]}}, {"type": "Feature", "properties": {"NAME": "TotalEnergies 3"}, "geometry": {"type": "Point", "coordinates": [11.03344, 50.962879]}}]}