{
"type": "FeatureCollection",
"name": "Kino",
"crs": { "type": "name", "properties": { "name": "urn:ogc:def:crs:OGC:1.3:CRS84" } },
"features": [
{ "type": "Feature", "properties": { "NAME": "Cineplex", "STR_NAME": "Albersloher Weg", "HSNR": 14.0, "HSNR_ZUS": "", "PLZ": 48155.0, "ORT": "Mï¿½nster", "RECHTSWERT": 406311.0, "HOCHWERT": 5756398.0, "HOMEPAGE": "https:\/\/www.cineplex.de\/programm\/muenster\/" }, "geometry": { "type": "Point", "coordinates": [ 7.636752369237026, 51.950387760745116 ] } },
{ "type": "Feature", "properties": { "NAME": "Schloßtheater", "STR_NAME": "Melchersstraße", "HSNR": 81.0, "HSNR_ZUS": "", "PLZ": 48149.0, "ORT": "Mï¿½nster", "RECHTSWERT": 404799.0, "HOCHWERT": 5758738.0, "HOMEPAGE": "https:\/\/www.cineplex.de\/infos\/das-schlosstheater\/1161\/muenster\/" }, "geometry": { "type": "Point", "coordinates": [ 7.614109926369751, 51.971163844592702 ] } },
{ "type": "Feature", "properties": { "NAME": "Cinema", "STR_NAME": "Warendorfer Straße", "HSNR": 45.0, "HSNR_ZUS": "", "PLZ": 48145.0, "ORT": "Mï¿½nster", "RECHTSWERT": 406750.0, "HOCHWERT": 5757686.0, "HOMEPAGE": "http:\/\/cinema-muenster.de\/" }, "geometry": { "type": "Point", "coordinates": [ 7.642788636646727, 51.962038725121765 ] } }
]
}
